<?xml version="1.0" encoding="UTF-8"?>
<gpx version="1.1" creator="trocha-y-ruta-test-fixtures" xmlns="http://www.topografix.com/GPX/1/1">
<trk><name>Synthetic test track</name><trkseg>
<trkpt lat="3.4499289" lon="-76.5262538">
</trkpt>
<trkpt lat="3.4501607" lon="-76.5262421">
</trkpt>
<trkpt lat="3.4503811" lon="-76.5262353">
</trkpt>
<trkpt lat="3.4505704" lon="-76.5262150">
</trkpt>
<trkpt lat="3.4506874" lon="-76.5262044">
</trkpt>
<trkpt lat="3.4508567" lon="-76.5263221">
</trkpt>
<trkpt lat="3.4511206" lon="-76.5263512">
</trkpt>
<trkpt lat="3.4512181" lon="-76.5263861">
</trkpt>
<trkpt lat="3.4514071" lon="-76.5264742">
</trkpt>
<trkpt lat="3.4516443" lon="-76.5264227">
</trkpt>
<trkpt lat="3.4517668" lon="-76.5265209">
</trkpt>
<trkpt lat="3.4519899" lon="-76.5265094">
</trkpt>
<trkpt lat="3.4521141" lon="-76.5266843">
</trkpt>
<trkpt lat="3.4522663" lon="-76.5267352">
</trkpt>
<trkpt lat="3.4524610" lon="-76.5268275">
</trkpt>
<trkpt lat="3.4525843" lon="-76.5268785">
</trkpt>
<trkpt lat="3.4527918" lon="-76.5270159">
</trkpt>
<trkpt lat="3.4529719" lon="-76.5270906">
</trkpt>
<trkpt lat="3.4530438" lon="-76.5271854">
</trkpt>
<trkpt lat="3.4531882" lon="-76.5272936">
</trkpt>
<trkpt lat="3.4533912" lon="-76.5274065">
</trkpt>
<trkpt lat="3.4535541" lon="-76.5275272">
</trkpt>
<trkpt lat="3.4536415" lon="-76.5275921">
</trkpt>
<trkpt lat="3.4538083" lon="-76.5276685">
</trkpt>
<trkpt lat="3.4539787" lon="-76.5278605">
</trkpt>
<trkpt lat="3.4540332" lon="-76.5279345">
</trkpt>
<trkpt lat="3.4542047" lon="-76.5281519">
</trkpt>
<trkpt lat="3.4543279" lon="-76.5282009">
</trkpt>
<trkpt lat="3.4544545" lon="-76.5283130">
</trkpt>
<trkpt lat="3.4545825" lon="-76.5284754">
</trkpt>
<trkpt lat="3.4545367" lon="-76.5286281">
</trkpt>
<trkpt lat="3.4547375" lon="-76.5288205">
</trkpt>
<trkpt lat="3.4549144" lon="-76.5289454">
</trkpt>
<trkpt lat="3.4549995" lon="-76.5290784">
</trkpt>
<trkpt lat="3.4549476" lon="-76.5292667">
</trkpt>
<trkpt lat="3.4550668" lon="-76.5293745">
</trkpt>
<trkpt lat="3.4552426" lon="-76.5295471">
</trkpt>
<trkpt lat="3.4552987" lon="-76.5298069">
</trkpt>
<trkpt lat="3.4553100" lon="-76.5299599">
</trkpt>
<trkpt lat="3.4553875" lon="-76.5300148">
</trkpt>
<trkpt lat="3.4555623" lon="-76.5302633">
</trkpt>
<trkpt lat="3.4554834" lon="-76.5304417">
</trkpt>
<trkpt lat="3.4555655" lon="-76.5305410">
</trkpt>
<trkpt lat="3.4555143" lon="-76.5307439">
</trkpt>
<trkpt lat="3.4556419" lon="-76.5309523">
</trkpt>
<trkpt lat="3.4556598" lon="-76.5310458">
</trkpt>
<trkpt lat="3.4556891" lon="-76.5312882">
</trkpt>
<trkpt lat="3.4557950" lon="-76.5313912">
</trkpt>
<trkpt lat="3.4557290" lon="-76.5316909">
</trkpt>
<trkpt lat="3.4557538" lon="-76.5319669">
</trkpt>
<trkpt lat="3.4558312" lon="-76.5320408">
</trkpt>
<trkpt lat="3.4557524" lon="-76.5321696">
</trkpt>
<trkpt lat="3.4556668" lon="-76.5323390">
</trkpt>
<trkpt lat="3.4557798" lon="-76.5326077">
</trkpt>
<trkpt lat="3.4557776" lon="-76.5326535">
</trkpt>
<trkpt lat="3.4556333" lon="-76.5328723">
</trkpt>
<trkpt lat="3.4557088" lon="-76.5330764">
</trkpt>
<trkpt lat="3.4556149" lon="-76.5332538">
</trkpt>
<trkpt lat="3.4555510" lon="-76.5333832">
</trkpt>
<trkpt lat="3.4555224" lon="-76.5335941">
</trkpt>
<trkpt lat="3.4554407" lon="-76.5338845">
</trkpt>
<trkpt lat="3.4553845" lon="-76.5339720">
</trkpt>
<trkpt lat="3.4553269" lon="-76.5340925">
</trkpt>
<trkpt lat="3.4552488" lon="-76.5343264">
</trkpt>
<trkpt lat="3.4551615" lon="-76.5345013">
</trkpt>
<trkpt lat="3.4551054" lon="-76.5346536">
</trkpt>
<trkpt lat="3.4549958" lon="-76.5347618">
</trkpt>
<trkpt lat="3.4548955" lon="-76.5348570">
</trkpt>
<trkpt lat="3.4548963" lon="-76.5350833">
</trkpt>
<trkpt lat="3.4547553" lon="-76.5353367">
</trkpt>
<trkpt lat="3.4547449" lon="-76.5353297">
</trkpt>
<trkpt lat="3.4545111" lon="-76.5354900">
</trkpt>
<trkpt lat="3.4544101" lon="-76.5357047">
</trkpt>
<trkpt lat="3.4542740" lon="-76.5358412">
</trkpt>
<trkpt lat="3.4542114" lon="-76.5358979">
</trkpt>
<trkpt lat="3.4540246" lon="-76.5360775">
</trkpt>
<trkpt lat="3.4539469" lon="-76.5361307">
</trkpt>
<trkpt lat="3.4537924" lon="-76.5363274">
</trkpt>
<trkpt lat="3.4536798" lon="-76.5364384">
</trkpt>
<trkpt lat="3.4536170" lon="-76.5365228">
</trkpt>
<trkpt lat="3.4534149" lon="-76.5366489">
</trkpt>
<trkpt lat="3.4532227" lon="-76.5368322">
</trkpt>
<trkpt lat="3.4530351" lon="-76.5368670">
</trkpt>
<trkpt lat="3.4529152" lon="-76.5369940">
</trkpt>
<trkpt lat="3.4527413" lon="-76.5370563">
</trkpt>
<trkpt lat="3.4526584" lon="-76.5371447">
</trkpt>
<trkpt lat="3.4524912" lon="-76.5371721">
</trkpt>
<trkpt lat="3.4522348" lon="-76.5373136">
</trkpt>
<trkpt lat="3.4520998" lon="-76.5373083">
</trkpt>
<trkpt lat="3.4519976" lon="-76.5374236">
</trkpt>
<trkpt lat="3.4517421" lon="-76.5374186">
</trkpt>
<trkpt lat="3.4516081" lon="-76.5375368">
</trkpt>
<trkpt lat="3.4514534" lon="-76.5374561">
</trkpt>
<trkpt lat="3.4512281" lon="-76.5376143">
</trkpt>
<trkpt lat="3.4510917" lon="-76.5376575">
</trkpt>
<trkpt lat="3.4509055" lon="-76.5377013">
</trkpt>
<trkpt lat="3.4507617" lon="-76.5377312">
</trkpt>
<trkpt lat="3.4504959" lon="-76.5377297">
</trkpt>
<trkpt lat="3.4504284" lon="-76.5377839">
</trkpt>
<trkpt lat="3.4502020" lon="-76.5377427">
</trkpt>
<trkpt lat="3.4500407" lon="-76.5377417">
</trkpt>
<trkpt lat="3.4497748" lon="-76.5376970">
</trkpt>
<trkpt lat="3.4496617" lon="-76.5377567">
</trkpt>
<trkpt lat="3.4494228" lon="-76.5377385">
</trkpt>
<trkpt lat="3.4492451" lon="-76.5377714">
</trkpt>
<trkpt lat="3.4491210" lon="-76.5377463">
</trkpt>
<trkpt lat="3.4489138" lon="-76.5376065">
</trkpt>
<trkpt lat="3.4487144" lon="-76.5376037">
</trkpt>
<trkpt lat="3.4484891" lon="-76.5375761">
</trkpt>
<trkpt lat="3.4483749" lon="-76.5374839">
</trkpt>
<trkpt lat="3.4483014" lon="-76.5375274">
</trkpt>
<trkpt lat="3.4480815" lon="-76.5374300">
</trkpt>
<trkpt lat="3.4478329" lon="-76.5373228">
</trkpt>
<trkpt lat="3.4477535" lon="-76.5372327">
</trkpt>
<trkpt lat="3.4475615" lon="-76.5371463">
</trkpt>
<trkpt lat="3.4474267" lon="-76.5371585">
</trkpt>
<trkpt lat="3.4471300" lon="-76.5370350">
</trkpt>
<trkpt lat="3.4471303" lon="-76.5370415">
</trkpt>
<trkpt lat="3.4468823" lon="-76.5367938">
</trkpt>
<trkpt lat="3.4467812" lon="-76.5368149">
</trkpt>
<trkpt lat="3.4465610" lon="-76.5367228">
</trkpt>
<trkpt lat="3.4464663" lon="-76.5365971">
</trkpt>
<trkpt lat="3.4463622" lon="-76.5365139">
</trkpt>
<trkpt lat="3.4462598" lon="-76.5363676">
</trkpt>
<trkpt lat="3.4461790" lon="-76.5361054">
</trkpt>
<trkpt lat="3.4459194" lon="-76.5360933">
</trkpt>
<trkpt lat="3.4457947" lon="-76.5360044">
</trkpt>
<trkpt lat="3.4457847" lon="-76.5358736">
</trkpt>
<trkpt lat="3.4456239" lon="-76.5357857">
</trkpt>
<trkpt lat="3.4454608" lon="-76.5355172">
</trkpt>
<trkpt lat="3.4452808" lon="-76.5353631">
</trkpt>
<trkpt lat="3.4453237" lon="-76.5352573">
</trkpt>
<trkpt lat="3.4451737" lon="-76.5350870">
</trkpt>
<trkpt lat="3.4449956" lon="-76.5349548">
</trkpt>
<trkpt lat="3.4449158" lon="-76.5348960">
</trkpt>
<trkpt lat="3.4449126" lon="-76.5346274">
</trkpt>
<trkpt lat="3.4448026" lon="-76.5344145">
</trkpt>
<trkpt lat="3.4446861" lon="-76.5342901">
</trkpt>
<trkpt lat="3.4446607" lon="-76.5342137">
</trkpt>
<trkpt lat="3.4445643" lon="-76.5339801">
</trkpt>
<trkpt lat="3.4445736" lon="-76.5338330">
</trkpt>
<trkpt lat="3.4445115" lon="-76.5336448">
</trkpt>
<trkpt lat="3.4444170" lon="-76.5334325">
</trkpt>
<trkpt lat="3.4444023" lon="-76.5332143">
</trkpt>
<trkpt lat="3.4442821" lon="-76.5331659">
</trkpt>
<trkpt lat="3.4443097" lon="-76.5329870">
</trkpt>
<trkpt lat="3.4443245" lon="-76.5327151">
</trkpt>
<trkpt lat="3.4442817" lon="-76.5325881">
</trkpt>
<trkpt lat="3.4442643" lon="-76.5324038">
</trkpt>
<trkpt lat="3.4441883" lon="-76.5321710">
</trkpt>
<trkpt lat="3.4442563" lon="-76.5319397">
</trkpt>
<trkpt lat="3.4442570" lon="-76.5318968">
</trkpt>
<trkpt lat="3.4443139" lon="-76.5316637">
</trkpt>
<trkpt lat="3.4443174" lon="-76.5314298">
</trkpt>
<trkpt lat="3.4443327" lon="-76.5313107">
</trkpt>
<trkpt lat="3.4442944" lon="-76.5310981">
</trkpt>
<trkpt lat="3.4443756" lon="-76.5309299">
</trkpt>
<trkpt lat="3.4444072" lon="-76.5307257">
</trkpt>
<trkpt lat="3.4444227" lon="-76.5305563">
</trkpt>
<trkpt lat="3.4445495" lon="-76.5303753">
</trkpt>
<trkpt lat="3.4445444" lon="-76.5302259">
</trkpt>
<trkpt lat="3.4446263" lon="-76.5300239">
</trkpt>
<trkpt lat="3.4446713" lon="-76.5298836">
</trkpt>
<trkpt lat="3.4445977" lon="-76.5297020">
</trkpt>
<trkpt lat="3.4448320" lon="-76.5295592">
</trkpt>
<trkpt lat="3.4448532" lon="-76.5293863">
</trkpt>
<trkpt lat="3.4450317" lon="-76.5292802">
</trkpt>
<trkpt lat="3.4450057" lon="-76.5290778">
</trkpt>
<trkpt lat="3.4450733" lon="-76.5288667">
</trkpt>
<trkpt lat="3.4452098" lon="-76.5286620">
</trkpt>
<trkpt lat="3.4453097" lon="-76.5286059">
</trkpt>
<trkpt lat="3.4455280" lon="-76.5284638">
</trkpt>
<trkpt lat="3.4455716" lon="-76.5283147">
</trkpt>
<trkpt lat="3.4457028" lon="-76.5281421">
</trkpt>
<trkpt lat="3.4459411" lon="-76.5280816">
</trkpt>
<trkpt lat="3.4459060" lon="-76.5279306">
</trkpt>
<trkpt lat="3.4459824" lon="-76.5278504">
</trkpt>
<trkpt lat="3.4461745" lon="-76.5277794">
</trkpt>
<trkpt lat="3.4463485" lon="-76.5275562">
</trkpt>
<trkpt lat="3.4465301" lon="-76.5274809">
</trkpt>
<trkpt lat="3.4466188" lon="-76.5273004">
</trkpt>
<trkpt lat="3.4467942" lon="-76.5272655">
</trkpt>
<trkpt lat="3.4468517" lon="-76.5271663">
</trkpt>
<trkpt lat="3.4470448" lon="-76.5271043">
</trkpt>
<trkpt lat="3.4472599" lon="-76.5268921">
</trkpt>
<trkpt lat="3.4473875" lon="-76.5268501">
</trkpt>
<trkpt lat="3.4474969" lon="-76.5267696">
</trkpt>
<trkpt lat="3.4477048" lon="-76.5267108">
</trkpt>
<trkpt lat="3.4479143" lon="-76.5267239">
</trkpt>
<trkpt lat="3.4480105" lon="-76.5265453">
</trkpt>
<trkpt lat="3.4481248" lon="-76.5265610">
</trkpt>
<trkpt lat="3.4483770" lon="-76.5264588">
</trkpt>
<trkpt lat="3.4485531" lon="-76.5263830">
</trkpt>
<trkpt lat="3.4487245" lon="-76.5264464">
</trkpt>
<trkpt lat="3.4488945" lon="-76.5263097">
</trkpt>
<trkpt lat="3.4491534" lon="-76.5263800">
</trkpt>
<trkpt lat="3.4492963" lon="-76.5262990">
</trkpt>
<trkpt lat="3.4494182" lon="-76.5262248">
</trkpt>
<trkpt lat="3.4496656" lon="-76.5262385">
</trkpt>
<trkpt lat="3.4498251" lon="-76.5263342">
</trkpt>
<trkpt lat="3.4499324" lon="-76.5262273">
</trkpt>
<trkpt lat="3.4502430" lon="-76.5262580">
</trkpt>
<trkpt lat="3.4503917" lon="-76.5262110">
</trkpt>
<trkpt lat="3.4505355" lon="-76.5262325">
</trkpt>
<trkpt lat="3.4507560" lon="-76.5262344">
</trkpt>
<trkpt lat="3.4508491" lon="-76.5263408">
</trkpt>
<trkpt lat="3.4510783" lon="-76.5262559">
</trkpt>
<trkpt lat="3.4513059" lon="-76.5264288">
</trkpt>
<trkpt lat="3.4514689" lon="-76.5264092">
</trkpt>
<trkpt lat="3.4515690" lon="-76.5264536">
</trkpt>
<trkpt lat="3.4518037" lon="-76.5264541">
</trkpt>
<trkpt lat="3.4519245" lon="-76.5265547">
</trkpt>
<trkpt lat="3.4521461" lon="-76.5266568">
</trkpt>
<trkpt lat="3.4522577" lon="-76.5266766">
</trkpt>
<trkpt lat="3.4524423" lon="-76.5268106">
</trkpt>
<trkpt lat="3.4526028" lon="-76.5268687">
</trkpt>
<trkpt lat="3.4527344" lon="-76.5269152">
</trkpt>
<trkpt lat="3.4529262" lon="-76.5270111">
</trkpt>
<trkpt lat="3.4530452" lon="-76.5271778">
</trkpt>
<trkpt lat="3.4531729" lon="-76.5272595">
</trkpt>
<trkpt lat="3.4533612" lon="-76.5273439">
</trkpt>
<trkpt lat="3.4535165" lon="-76.5274360">
</trkpt>
<trkpt lat="3.4536053" lon="-76.5275525">
</trkpt>
<trkpt lat="3.4537924" lon="-76.5277012">
</trkpt>
<trkpt lat="3.4539377" lon="-76.5278214">
</trkpt>
<trkpt lat="3.4540616" lon="-76.5279893">
</trkpt>
<trkpt lat="3.4541729" lon="-76.5280676">
</trkpt>
<trkpt lat="3.4542403" lon="-76.5281898">
</trkpt>
<trkpt lat="3.4544618" lon="-76.5283247">
</trkpt>
<trkpt lat="3.4545403" lon="-76.5285087">
</trkpt>
<trkpt lat="3.4546355" lon="-76.5285948">
</trkpt>
<trkpt lat="3.4547323" lon="-76.5287900">
</trkpt>
<trkpt lat="3.4548444" lon="-76.5289474">
</trkpt>
<trkpt lat="3.4549460" lon="-76.5290857">
</trkpt>
<trkpt lat="3.4550514" lon="-76.5292383">
</trkpt>
<trkpt lat="3.4550373" lon="-76.5294388">
</trkpt>
<trkpt lat="3.4551843" lon="-76.5295136">
</trkpt>
<trkpt lat="3.4552757" lon="-76.5297679">
</trkpt>
<trkpt lat="3.4553541" lon="-76.5298687">
</trkpt>
<trkpt lat="3.4553754" lon="-76.5300824">
</trkpt>
<trkpt lat="3.4555916" lon="-76.5302042">
</trkpt>
<trkpt lat="3.4554802" lon="-76.5304080">
</trkpt>
<trkpt lat="3.4555761" lon="-76.5305176">
</trkpt>
<trkpt lat="3.4555926" lon="-76.5307770">
</trkpt>
<trkpt lat="3.4556385" lon="-76.5309564">
</trkpt>
<trkpt lat="3.4557887" lon="-76.5311102">
</trkpt>
<trkpt lat="3.4557448" lon="-76.5313566">
</trkpt>
<trkpt lat="3.4557800" lon="-76.5314361">
</trkpt>
<trkpt lat="3.4557119" lon="-76.5315950">
</trkpt>
<trkpt lat="3.4557735" lon="-76.5317976">
</trkpt>
<trkpt lat="3.4557533" lon="-76.5320094">
</trkpt>
<trkpt lat="3.4557465" lon="-76.5321287">
</trkpt>
<trkpt lat="3.4556514" lon="-76.5323106">
</trkpt>
<trkpt lat="3.4557130" lon="-76.5325764">
</trkpt>
<trkpt lat="3.4556887" lon="-76.5326996">
</trkpt>
<trkpt lat="3.4557359" lon="-76.5329315">
</trkpt>
<trkpt lat="3.4556367" lon="-76.5330761">
</trkpt>
<trkpt lat="3.4555801" lon="-76.5332164">
</trkpt>
<trkpt lat="3.4556026" lon="-76.5334080">
</trkpt>
<trkpt lat="3.4555357" lon="-76.5335849">
</trkpt>
<trkpt lat="3.4554621" lon="-76.5337844">
</trkpt>
<trkpt lat="3.4553729" lon="-76.5339499">
</trkpt>
<trkpt lat="3.4553254" lon="-76.5340931">
</trkpt>
<trkpt lat="3.4552925" lon="-76.5343000">
</trkpt>
<trkpt lat="3.4551833" lon="-76.5344899">
</trkpt>
<trkpt lat="3.4551701" lon="-76.5345596">
</trkpt>
<trkpt lat="3.4551131" lon="-76.5348668">
</trkpt>
<trkpt lat="3.4549469" lon="-76.5349357">
</trkpt>
<trkpt lat="3.4548789" lon="-76.5350481">
</trkpt>
<trkpt lat="3.4547010" lon="-76.5352746">
</trkpt>
<trkpt lat="3.4547174" lon="-76.5354325">
</trkpt>
<trkpt lat="3.4545373" lon="-76.5355279">
</trkpt>
<trkpt lat="3.4544119" lon="-76.5356759">
</trkpt>
<trkpt lat="3.4542035" lon="-76.5358236">
</trkpt>
<trkpt lat="3.4541442" lon="-76.5360221">
</trkpt>
<trkpt lat="3.4540432" lon="-76.5360886">
</trkpt>
<trkpt lat="3.4539098" lon="-76.5361283">
</trkpt>
<trkpt lat="3.4537726" lon="-76.5363651">
</trkpt>
<trkpt lat="3.4536078" lon="-76.5364111">
</trkpt>
<trkpt lat="3.4534977" lon="-76.5365684">
</trkpt>
<trkpt lat="3.4533373" lon="-76.5367256">
</trkpt>
<trkpt lat="3.4531674" lon="-76.5367590">
</trkpt>
<trkpt lat="3.4530395" lon="-76.5368473">
</trkpt>
<trkpt lat="3.4529398" lon="-76.5369547">
</trkpt>
<trkpt lat="3.4528362" lon="-76.5370825">
</trkpt>
<trkpt lat="3.4525805" lon="-76.5371087">
</trkpt>
<trkpt lat="3.4524793" lon="-76.5371971">
</trkpt>
<trkpt lat="3.4523491" lon="-76.5372482">
</trkpt>
<trkpt lat="3.4521014" lon="-76.5373012">
</trkpt>
<trkpt lat="3.4519281" lon="-76.5373745">
</trkpt>
<trkpt lat="3.4517972" lon="-76.5375406">
</trkpt>
<trkpt lat="3.4516144" lon="-76.5375400">
</trkpt>
<trkpt lat="3.4514320" lon="-76.5375872">
</trkpt>
<trkpt lat="3.4511850" lon="-76.5375717">
</trkpt>
<trkpt lat="3.4510779" lon="-76.5377104">
</trkpt>
<trkpt lat="3.4509196" lon="-76.5377439">
</trkpt>
<trkpt lat="3.4507338" lon="-76.5377090">
</trkpt>
<trkpt lat="3.4504889" lon="-76.5376965">
</trkpt>
<trkpt lat="3.4503402" lon="-76.5377211">
</trkpt>
<trkpt lat="3.4501442" lon="-76.5377329">
</trkpt>
<trkpt lat="3.4500172" lon="-76.5377739">
</trkpt>
<trkpt lat="3.4497684" lon="-76.5377215">
</trkpt>
<trkpt lat="3.4496226" lon="-76.5377036">
</trkpt>
<trkpt lat="3.4494657" lon="-76.5377662">
</trkpt>
<trkpt lat="3.4491774" lon="-76.5377212">
</trkpt>
<trkpt lat="3.4490536" lon="-76.5377391">
</trkpt>
<trkpt lat="3.4489704" lon="-76.5376783">
</trkpt>
<trkpt lat="3.4487287" lon="-76.5376538">
</trkpt>
<trkpt lat="3.4485944" lon="-76.5376561">
</trkpt>
<trkpt lat="3.4484010" lon="-76.5374833">
</trkpt>
<trkpt lat="3.4481486" lon="-76.5374374">
</trkpt>
<trkpt lat="3.4480234" lon="-76.5373873">
</trkpt>
<trkpt lat="3.4478241" lon="-76.5373105">
</trkpt>
<trkpt lat="3.4476697" lon="-76.5372159">
</trkpt>
<trkpt lat="3.4475994" lon="-76.5372111">
</trkpt>
<trkpt lat="3.4473408" lon="-76.5370912">
</trkpt>
<trkpt lat="3.4471759" lon="-76.5371070">
</trkpt>
<trkpt lat="3.4469849" lon="-76.5369092">
</trkpt>
<trkpt lat="3.4468900" lon="-76.5368189">
</trkpt>
<trkpt lat="3.4467216" lon="-76.5368183">
</trkpt>
<trkpt lat="3.4466159" lon="-76.5366885">
</trkpt>
<trkpt lat="3.4464918" lon="-76.5365540">
</trkpt>
<trkpt lat="3.4463361" lon="-76.5364234">
</trkpt>
<trkpt lat="3.4462470" lon="-76.5362535">
</trkpt>
<trkpt lat="3.4459719" lon="-76.5362386">
</trkpt>
<trkpt lat="3.4458998" lon="-76.5360441">
</trkpt>
<trkpt lat="3.4458648" lon="-76.5359701">
</trkpt>
<trkpt lat="3.4456275" lon="-76.5358968">
</trkpt>
<trkpt lat="3.4455304" lon="-76.5357225">
</trkpt>
<trkpt lat="3.4454307" lon="-76.5355086">
</trkpt>
<trkpt lat="3.4453296" lon="-76.5353111">
</trkpt>
<trkpt lat="3.4453001" lon="-76.5352987">
</trkpt>
<trkpt lat="3.4451283" lon="-76.5351103">
</trkpt>
<trkpt lat="3.4451232" lon="-76.5349033">
</trkpt>
<trkpt lat="3.4451026" lon="-76.5348276">
</trkpt>
<trkpt lat="3.4449517" lon="-76.5346814">
</trkpt>
<trkpt lat="3.4448111" lon="-76.5343928">
</trkpt>
<trkpt lat="3.4447640" lon="-76.5342597">
</trkpt>
<trkpt lat="3.4446257" lon="-76.5341196">
</trkpt>
<trkpt lat="3.4446056" lon="-76.5340242">
</trkpt>
<trkpt lat="3.4445148" lon="-76.5337533">
</trkpt>
<trkpt lat="3.4444126" lon="-76.5336122">
</trkpt>
<trkpt lat="3.4444007" lon="-76.5334100">
</trkpt>
<trkpt lat="3.4443187" lon="-76.5332421">
</trkpt>
<trkpt lat="3.4443932" lon="-76.5330840">
</trkpt>
<trkpt lat="3.4443309" lon="-76.5328573">
</trkpt>
<trkpt lat="3.4442905" lon="-76.5326546">
</trkpt>
<trkpt lat="3.4443589" lon="-76.5325100">
</trkpt>
<trkpt lat="3.4443115" lon="-76.5324154">
</trkpt>
<trkpt lat="3.4441839" lon="-76.5321830">
</trkpt>
<trkpt lat="3.4442121" lon="-76.5320002">
</trkpt>
<trkpt lat="3.4441773" lon="-76.5319045">
</trkpt>
<trkpt lat="3.4442531" lon="-76.5316430">
</trkpt>
<trkpt lat="3.4443244" lon="-76.5314063">
</trkpt>
<trkpt lat="3.4443186" lon="-76.5312502">
</trkpt>
<trkpt lat="3.4442228" lon="-76.5310666">
</trkpt>
<trkpt lat="3.4443466" lon="-76.5309307">
</trkpt>
<trkpt lat="3.4443350" lon="-76.5307284">
</trkpt>
<trkpt lat="3.4445079" lon="-76.5305584">
</trkpt>
<trkpt lat="3.4444347" lon="-76.5303253">
</trkpt>
<trkpt lat="3.4446130" lon="-76.5302525">
</trkpt>
<trkpt lat="3.4446459" lon="-76.5300729">
</trkpt>
<trkpt lat="3.4445889" lon="-76.5298993">
</trkpt>
<trkpt lat="3.4447675" lon="-76.5297168">
</trkpt>
<trkpt lat="3.4448029" lon="-76.5295935">
</trkpt>
<trkpt lat="3.4448430" lon="-76.5294583">
</trkpt>
<trkpt lat="3.4450000" lon="-76.5292425">
</trkpt>
<trkpt lat="3.4450465" lon="-76.5290025">
</trkpt>
<trkpt lat="3.4451584" lon="-76.5288014">
</trkpt>
<trkpt lat="3.4452587" lon="-76.5287860">
</trkpt>
<trkpt lat="3.4453848" lon="-76.5286213">
</trkpt>
<trkpt lat="3.4454388" lon="-76.5284685">
</trkpt>
<trkpt lat="3.4455898" lon="-76.5283600">
</trkpt>
<trkpt lat="3.4457646" lon="-76.5281539">
</trkpt>
<trkpt lat="3.4457987" lon="-76.5280388">
</trkpt>
<trkpt lat="3.4459709" lon="-76.5279856">
</trkpt>
<trkpt lat="3.4460765" lon="-76.5278053">
</trkpt>
<trkpt lat="3.4461339" lon="-76.5276937">
</trkpt>
<trkpt lat="3.4463612" lon="-76.5275370">
</trkpt>
<trkpt lat="3.4464982" lon="-76.5274212">
</trkpt>
<trkpt lat="3.4465833" lon="-76.5273686">
</trkpt>
<trkpt lat="3.4468077" lon="-76.5272635">
</trkpt>
<trkpt lat="3.4469922" lon="-76.5271377">
</trkpt>
<trkpt lat="3.4470089" lon="-76.5270757">
</trkpt>
<trkpt lat="3.4472536" lon="-76.5268912">
</trkpt>
<trkpt lat="3.4474379" lon="-76.5268631">
</trkpt>
<trkpt lat="3.4474983" lon="-76.5269040">
</trkpt>
<trkpt lat="3.4476784" lon="-76.5266915">
</trkpt>
<trkpt lat="3.4478662" lon="-76.5266126">
</trkpt>
<trkpt lat="3.4480434" lon="-76.5265267">
</trkpt>
<trkpt lat="3.4481073" lon="-76.5265187">
</trkpt>
<trkpt lat="3.4484058" lon="-76.5264800">
</trkpt>
<trkpt lat="3.4485978" lon="-76.5264161">
</trkpt>
<trkpt lat="3.4487958" lon="-76.5263598">
</trkpt>
<trkpt lat="3.4489216" lon="-76.5263363">
</trkpt>
<trkpt lat="3.4491400" lon="-76.5263103">
</trkpt>
<trkpt lat="3.4493632" lon="-76.5262123">
</trkpt>
<trkpt lat="3.4495168" lon="-76.5263232">
</trkpt>
<trkpt lat="3.4495739" lon="-76.5262263">
</trkpt>
<trkpt lat="3.4498849" lon="-76.5262018">
</trkpt>
<trkpt lat="3.4499375" lon="-76.5261656">
</trkpt>
<trkpt lat="3.4501665" lon="-76.5261807">
</trkpt>
<trkpt lat="3.4503903" lon="-76.5262155">
</trkpt>
<trkpt lat="3.4505080" lon="-76.5263594">
</trkpt>
<trkpt lat="3.4507271" lon="-76.5263210">
</trkpt>
<trkpt lat="3.4508847" lon="-76.5263479">
</trkpt>
<trkpt lat="3.4510969" lon="-76.5262988">
</trkpt>
<trkpt lat="3.4512723" lon="-76.5263936">
</trkpt>
<trkpt lat="3.4514102" lon="-76.5264077">
</trkpt>
<trkpt lat="3.4517213" lon="-76.5265032">
</trkpt>
<trkpt lat="3.4517878" lon="-76.5265075">
</trkpt>
<trkpt lat="3.4519146" lon="-76.5265898">
</trkpt>
<trkpt lat="3.4520773" lon="-76.5265897">
</trkpt>
<trkpt lat="3.4522563" lon="-76.5267511">
</trkpt>
<trkpt lat="3.4524970" lon="-76.5268350">
</trkpt>
<trkpt lat="3.4525819" lon="-76.5268499">
</trkpt>
<trkpt lat="3.4528340" lon="-76.5269160">
</trkpt>
<trkpt lat="3.4529584" lon="-76.5270265">
</trkpt>
<trkpt lat="3.4530758" lon="-76.5271337">
</trkpt>
<trkpt lat="3.4532830" lon="-76.5272328">
</trkpt>
<trkpt lat="3.4532767" lon="-76.5273581">
</trkpt>
<trkpt lat="3.4535803" lon="-76.5274908">
</trkpt>
<trkpt lat="3.4537068" lon="-76.5275942">
</trkpt>
<trkpt lat="3.4538401" lon="-76.5276908">
</trkpt>
<trkpt lat="3.4539138" lon="-76.5278926">
</trkpt>
<trkpt lat="3.4540177" lon="-76.5279008">
</trkpt>
<trkpt lat="3.4542349" lon="-76.5280598">
</trkpt>
<trkpt lat="3.4543044" lon="-76.5282156">
</trkpt>
<trkpt lat="3.4544160" lon="-76.5283037">
</trkpt>
<trkpt lat="3.4546132" lon="-76.5284898">
</trkpt>
<trkpt lat="3.4546859" lon="-76.5285926">
</trkpt>
<trkpt lat="3.4547220" lon="-76.5287052">
</trkpt>
<trkpt lat="3.4548400" lon="-76.5288474">
</trkpt>
<trkpt lat="3.4549171" lon="-76.5291088">
</trkpt>
<trkpt lat="3.4549800" lon="-76.5291830">
</trkpt>
<trkpt lat="3.4550734" lon="-76.5293340">
</trkpt>
<trkpt lat="3.4552421" lon="-76.5295145">
</trkpt>
<trkpt lat="3.4552340" lon="-76.5297064">
</trkpt>
<trkpt lat="3.4553607" lon="-76.5298472">
</trkpt>
<trkpt lat="3.4553468" lon="-76.5300957">
</trkpt>
<trkpt lat="3.4555232" lon="-76.5302390">
</trkpt>
<trkpt lat="3.4555085" lon="-76.5303834">
</trkpt>
<trkpt lat="3.4556328" lon="-76.5305385">
</trkpt>
<trkpt lat="3.4555989" lon="-76.5307896">
</trkpt>
<trkpt lat="3.4556485" lon="-76.5309960">
</trkpt>
<trkpt lat="3.4556170" lon="-76.5310996">
</trkpt>
<trkpt lat="3.4557178" lon="-76.5313669">
</trkpt>
<trkpt lat="3.4557027" lon="-76.5314784">
</trkpt>
<trkpt lat="3.4556802" lon="-76.5316921">
</trkpt>
<trkpt lat="3.4557696" lon="-76.5318498">
</trkpt>
<trkpt lat="3.4558082" lon="-76.5319340">
</trkpt>
<trkpt lat="3.4557588" lon="-76.5321059">
</trkpt>
<trkpt lat="3.4557959" lon="-76.5323527">
</trkpt>
<trkpt lat="3.4557816" lon="-76.5325861">
</trkpt>
<trkpt lat="3.4555641" lon="-76.5327896">
</trkpt>
<trkpt lat="3.4557722" lon="-76.5328904">
</trkpt>
<trkpt lat="3.4556450" lon="-76.5330391">
</trkpt>
<trkpt lat="3.4556245" lon="-76.5332783">
</trkpt>
<trkpt lat="3.4555050" lon="-76.5335160">
</trkpt>
<trkpt lat="3.4555855" lon="-76.5336377">
</trkpt>
<trkpt lat="3.4554966" lon="-76.5337697">
</trkpt>
<trkpt lat="3.4553539" lon="-76.5339767">
</trkpt>
<trkpt lat="3.4553591" lon="-76.5341671">
</trkpt>
<trkpt lat="3.4553063" lon="-76.5342882">
</trkpt>
<trkpt lat="3.4551394" lon="-76.5344598">
</trkpt>
<trkpt lat="3.4552177" lon="-76.5345899">
</trkpt>
<trkpt lat="3.4550234" lon="-76.5348531">
</trkpt>
<trkpt lat="3.4549185" lon="-76.5349160">
</trkpt>
<trkpt lat="3.4549344" lon="-76.5350873">
</trkpt>
<trkpt lat="3.4546800" lon="-76.5351827">
</trkpt>
<trkpt lat="3.4546132" lon="-76.5354528">
</trkpt>
<trkpt lat="3.4545018" lon="-76.5355043">
</trkpt>
<trkpt lat="3.4544296" lon="-76.5356360">
</trkpt>
<trkpt lat="3.4543411" lon="-76.5357445">
</trkpt>
<trkpt lat="3.4542185" lon="-76.5359569">
</trkpt>
<trkpt lat="3.4541211" lon="-76.5361261">
</trkpt>
<trkpt lat="3.4538497" lon="-76.5362471">
</trkpt>
<trkpt lat="3.4538272" lon="-76.5363162">
</trkpt>
<trkpt lat="3.4536550" lon="-76.5364140">
</trkpt>
<trkpt lat="3.4534546" lon="-76.5365159">
</trkpt>
<trkpt lat="3.4533577" lon="-76.5366548">
</trkpt>
<trkpt lat="3.4532861" lon="-76.5367509">
</trkpt>
<trkpt lat="3.4530920" lon="-76.5368860">
</trkpt>
<trkpt lat="3.4529129" lon="-76.5369210">
</trkpt>
<trkpt lat="3.4527384" lon="-76.5370665">
</trkpt>
<trkpt lat="3.4526304" lon="-76.5371493">
</trkpt>
<trkpt lat="3.4523574" lon="-76.5371930">
</trkpt>
<trkpt lat="3.4522869" lon="-76.5373528">
</trkpt>
<trkpt lat="3.4520430" lon="-76.5372862">
</trkpt>
<trkpt lat="3.4520044" lon="-76.5374289">
</trkpt>
<trkpt lat="3.4518302" lon="-76.5374638">
</trkpt>
<trkpt lat="3.4516358" lon="-76.5375396">
</trkpt>
<trkpt lat="3.4513826" lon="-76.5375790">
</trkpt>
<trkpt lat="3.4511995" lon="-76.5376107">
</trkpt>
<trkpt lat="3.4510744" lon="-76.5376268">
</trkpt>
<trkpt lat="3.4508928" lon="-76.5376594">
</trkpt>
<trkpt lat="3.4507059" lon="-76.5376843">
</trkpt>
<trkpt lat="3.4505777" lon="-76.5377748">
</trkpt>
<trkpt lat="3.4503679" lon="-76.5377031">
</trkpt>
<trkpt lat="3.4501875" lon="-76.5378066">
</trkpt>
<trkpt lat="3.4499568" lon="-76.5378128">
</trkpt>
<trkpt lat="3.4498466" lon="-76.5377601">
</trkpt>
<trkpt lat="3.4496274" lon="-76.5377076">
</trkpt>
<trkpt lat="3.4494796" lon="-76.5377319">
</trkpt>
<trkpt lat="3.4492843" lon="-76.5376701">
</trkpt>
<trkpt lat="3.4491146" lon="-76.5376768">
</trkpt>
<trkpt lat="3.4488909" lon="-76.5377432">
</trkpt>
<trkpt lat="3.4487195" lon="-76.5376188">
</trkpt>
<trkpt lat="3.4485870" lon="-76.5375409">
</trkpt>
<trkpt lat="3.4483587" lon="-76.5375301">
</trkpt>
<trkpt lat="3.4481904" lon="-76.5374009">
</trkpt>
<trkpt lat="3.4480424" lon="-76.5374154">
</trkpt>
<trkpt lat="3.4478553" lon="-76.5373270">
</trkpt>
<trkpt lat="3.4476787" lon="-76.5373332">
</trkpt>
<trkpt lat="3.4474722" lon="-76.5372193">
</trkpt>
<trkpt lat="3.4473950" lon="-76.5371038">
</trkpt>
<trkpt lat="3.4471596" lon="-76.5371254">
</trkpt>
<trkpt lat="3.4471331" lon="-76.5369216">
</trkpt>
<trkpt lat="3.4469263" lon="-76.5368346">
</trkpt>
<trkpt lat="3.4467682" lon="-76.5368099">
</trkpt>
<trkpt lat="3.4466858" lon="-76.5366245">
</trkpt>
<trkpt lat="3.4464099" lon="-76.5364891">
</trkpt>
<trkpt lat="3.4463331" lon="-76.5363589">
</trkpt>
<trkpt lat="3.4461355" lon="-76.5363054">
</trkpt>
<trkpt lat="3.4459786" lon="-76.5362207">
</trkpt>
<trkpt lat="3.4459236" lon="-76.5360405">
</trkpt>
<trkpt lat="3.4458077" lon="-76.5359901">
</trkpt>
<trkpt lat="3.4457622" lon="-76.5357614">
</trkpt>
<trkpt lat="3.4456055" lon="-76.5356951">
</trkpt>
<trkpt lat="3.4454081" lon="-76.5354822">
</trkpt>
<trkpt lat="3.4453518" lon="-76.5353858">
</trkpt>
<trkpt lat="3.4451912" lon="-76.5352174">
</trkpt>
<trkpt lat="3.4451154" lon="-76.5350697">
</trkpt>
<trkpt lat="3.4450734" lon="-76.5348969">
</trkpt>
<trkpt lat="3.4449207" lon="-76.5347312">
</trkpt>
<trkpt lat="3.4449022" lon="-76.5345562">
</trkpt>
<trkpt lat="3.4447942" lon="-76.5344503">
</trkpt>
<trkpt lat="3.4446742" lon="-76.5342900">
</trkpt>
<trkpt lat="3.4446684" lon="-76.5340676">
</trkpt>
<trkpt lat="3.4446684" lon="-76.5339305">
</trkpt>
<trkpt lat="3.4444964" lon="-76.5338240">
</trkpt>
<trkpt lat="3.4444478" lon="-76.5335539">
</trkpt>
<trkpt lat="3.4444158" lon="-76.5334608">
</trkpt>
<trkpt lat="3.4443964" lon="-76.5332358">
</trkpt>
<trkpt lat="3.4444332" lon="-76.5330446">
</trkpt>
<trkpt lat="3.4443953" lon="-76.5328669">
</trkpt>
<trkpt lat="3.4441912" lon="-76.5326837">
</trkpt>
<trkpt lat="3.4442981" lon="-76.5324853">
</trkpt>
<trkpt lat="3.4442415" lon="-76.5323635">
</trkpt>
<trkpt lat="3.4442931" lon="-76.5321974">
</trkpt>
<trkpt lat="3.4442421" lon="-76.5320334">
</trkpt>
<trkpt lat="3.4442911" lon="-76.5317250">
</trkpt>
<trkpt lat="3.4443064" lon="-76.5315848">
</trkpt>
<trkpt lat="3.4443621" lon="-76.5314245">
</trkpt>
<trkpt lat="3.4443006" lon="-76.5312247">
</trkpt>
<trkpt lat="3.4443767" lon="-76.5311387">
</trkpt>
<trkpt lat="3.4443247" lon="-76.5308567">
</trkpt>
<trkpt lat="3.4444116" lon="-76.5307493">
</trkpt>
<trkpt lat="3.4444988" lon="-76.5305620">
</trkpt>
<trkpt lat="3.4445061" lon="-76.5305094">
</trkpt>
<trkpt lat="3.4445391" lon="-76.5302335">
</trkpt>
<trkpt lat="3.4443932" lon="-76.5300896">
</trkpt>
<trkpt lat="3.4446925" lon="-76.5298262">
</trkpt>
<trkpt lat="3.4447970" lon="-76.5297680">
</trkpt>
<trkpt lat="3.4448597" lon="-76.5295296">
</trkpt>
<trkpt lat="3.4448267" lon="-76.5294396">
</trkpt>
<trkpt lat="3.4450379" lon="-76.5291762">
</trkpt>
<trkpt lat="3.4450521" lon="-76.5289716">
</trkpt>
<trkpt lat="3.4451251" lon="-76.5289879">
</trkpt>
<trkpt lat="3.4452783" lon="-76.5287025">
</trkpt>
<trkpt lat="3.4453804" lon="-76.5286036">
</trkpt>
<trkpt lat="3.4454410" lon="-76.5285136">
</trkpt>
<trkpt lat="3.4455727" lon="-76.5283421">
</trkpt>
<trkpt lat="3.4456906" lon="-76.5281855">
</trkpt>
<trkpt lat="3.4458061" lon="-76.5280646">
</trkpt>
<trkpt lat="3.4460003" lon="-76.5279140">
</trkpt>
<trkpt lat="3.4460454" lon="-76.5277542">
</trkpt>
<trkpt lat="3.4462050" lon="-76.5276700">
</trkpt>
<trkpt lat="3.4463384" lon="-76.5275349">
</trkpt>
<trkpt lat="3.4464844" lon="-76.5274634">
</trkpt>
<trkpt lat="3.4466062" lon="-76.5273908">
</trkpt>
<trkpt lat="3.4466919" lon="-76.5272382">
</trkpt>
<trkpt lat="3.4469578" lon="-76.5271258">
</trkpt>
<trkpt lat="3.4469860" lon="-76.5270231">
</trkpt>
<trkpt lat="3.4472831" lon="-76.5269085">
</trkpt>
<trkpt lat="3.4474593" lon="-76.5269132">
</trkpt>
<trkpt lat="3.4474720" lon="-76.5267629">
</trkpt>
<trkpt lat="3.4476899" lon="-76.5266882">
</trkpt>
<trkpt lat="3.4478424" lon="-76.5266169">
</trkpt>
<trkpt lat="3.4480300" lon="-76.5264711">
</trkpt>
<trkpt lat="3.4482204" lon="-76.5265023">
</trkpt>
<trkpt lat="3.4483542" lon="-76.5264631">
</trkpt>
<trkpt lat="3.4486131" lon="-76.5264209">
</trkpt>
<trkpt lat="3.4487129" lon="-76.5263661">
</trkpt>
<trkpt lat="3.4489470" lon="-76.5263204">
</trkpt>
<trkpt lat="3.4490967" lon="-76.5263091">
</trkpt>
<trkpt lat="3.4493680" lon="-76.5262247">
</trkpt>
<trkpt lat="3.4494962" lon="-76.5262045">
</trkpt>
<trkpt lat="3.4496708" lon="-76.5262203">
</trkpt>
<trkpt lat="3.4497802" lon="-76.5262554">
</trkpt>
</trkseg></trk></gpx>